start=new Date('2023-04-14T00:00:00.000Z').valueOf();
sats=[{"OBJECT_NAME":"STARLINK-1334","EPOCH":"2023-04-13T11:48:03.677472","NORAD_CAT_ID":"45556","SITE":"AFETR","LAUNCH_DATE":"2020-04-22","CLASSIFICATION_TYPE":"U","APOAPSIS":"548.069","REF_FRAME":"TEME","ECCENTRICITY":"0.00012810","DECAY_DATE":null,"TLE_LINE2":"2 45556  53.0532 170.5209 0001281  83.5714 276.5420 15.06410404164821","OBJECT_ID":"2020-025AB","TIME_SYSTEM":"UTC","MEAN_ANOMALY":"276.5420","SEMIMAJOR_AXIS":"6925.317","GP_ID":"230018769","REV_AT_EPOCH":"16482","MEAN_MOTION_DDOT":"0.0000000000000","ARG_OF_PERICENTER":"83.5714","EPHEMERIS_TYPE":"0","PERIAPSIS":"546.295","TLE_LINE1":"1 45556U 20025AB  23103.49170923  .00020128  00000-0  13659-2 0  9997","RCS_SIZE":"LARGE","MEAN_MOTION":"15.06410404","MEAN_ELEMENT_THEORY":"SGP4","BSTAR":"0.00136590000000","RA_OF_ASC_NODE":"170.5209","ELEMENT_SET_NO":"999","COUNTRY_CODE":"US","CENTER_NAME":"EARTH","FILE":"3886630","OBJECT_TYPE":"PAYLOAD","INCLINATION":"53.0532","MEAN_MOTION_DOT":"0.00020128","PERIOD":"95.591"},{"BSTAR":"0.00107850000000","MEAN_ELEMENT_THEORY":"SGP4","CENTER_NAME":"EARTH","COUNTRY_CODE":"US","ELEMENT_SET_NO":"999","RA_OF_ASC_NODE":"169.5995","OBJECT_TYPE":"PAYLOAD","FILE":"3886676","PERIOD":"95.590","MEAN_MOTION_DOT":"0.00015832","INCLINATION":"53.0537","EPHEMERIS_TYPE":"0","ARG_OF_PERICENTER":"115.5446","MEAN_MOTION_DDOT":"0.0000000000000","RCS_SIZE":"LARGE","TLE_LINE1":"1 45557U 20025AC  23103.69810422  .00015832  00000-0  10785-2 0  9998","MEAN_MOTION":"15.06428684","PERIAPSIS":"546.164","APOAPSIS":"548.087","ECCENTRICITY":"0.00013880","REF_FRAME":"TEME","OBJECT_ID":"2020-025AC","TLE_LINE2":"2 45557  53.0537 169.5995 0001388 115.5446 244.5687 15.06428684164855","DECAY_DATE":null,"GP_ID":"230020252","REV_AT_EPOCH":"16485","SEMIMAJOR_AXIS":"6925.261","MEAN_ANOMALY":"244.5687","TIME_SYSTEM":"UTC","OBJECT_NAME":"STARLINK-1336","NORAD_CAT_ID":"45557","EPOCH":"2023-04-13T16:45:16.204608","CLASSIFICATION_TYPE":"U","LAUNCH_DATE":"2020-04-22","SITE":"AFETR"},{"APOAPSIS":"547.785","ECCENTRICITY":"0.00008980","REF_FRAME":"TEME","OBJECT_ID":"2020-025AD","TLE_LINE2":"2 45558  53.0533 169.7390 0000898  68.1264 291.9821 15.06416566164840","DECAY_DATE":null,"REV_AT_EPOCH":"16484","GP_ID":"230018268","SEMIMAJOR_AXIS":"6925.298","MEAN_ANOMALY":"291.9821","TIME_SYSTEM":"UTC","OBJECT_NAME":"STARLINK-1342","NORAD_CAT_ID":"45558","EPOCH":"2023-04-13T15:57:31.284288","CLASSIFICATION_TYPE":"U","SITE":"AFETR","LAUNCH_DATE":"2020-04-22","BSTAR":"0.00149970000000","MEAN_ELEMENT_THEORY":"SGP4","CENTER_NAME":"EARTH","COUNTRY_CODE":"US","ELEMENT_SET_NO":"999","RA_OF_ASC_NODE":"169.7390","OBJECT_TYPE":"PAYLOAD","FILE":"3886607","PERIOD":"95.591","MEAN_MOTION_DOT":"0.00022137","INCLINATION":"53.0533","ARG_OF_PERICENTER":"68.1264","EPHEMERIS_TYPE":"0","MEAN_MOTION_DDOT":"0.0000000000000","MEAN_MOTION":"15.06416566","TLE_LINE1":"1 45558U 20025AD  23103.66494542  .00022137  00000-0  14997-2 0  9992","RCS_SIZE":"LARGE","PERIAPSIS":"546.541"},{"APOAPSIS":"548.169","ECCENTRICITY":"0.00013890","REF_FRAME":"TEME","OBJECT_ID":"2020-025AE","TLE_LINE2":"2 45559  53.0539 170.4460 0001389  67.4638 292.6498 15.06402004164825","DECAY_DATE":null,"GP_ID":"230018802","REV_AT_EPOCH":"16482","SEMIMAJOR_AXIS":"6925.342","MEAN_ANOMALY":"292.6498","TIME_SYSTEM":"UTC","OBJECT_NAME":"STARLINK-1344","NORAD_CAT_ID":"45559","EPOCH":"2023-04-13T11:57:19.351296","CLASSIFICATION_TYPE":"U","LAUNCH_DATE":"2020-04-22","SITE":"AFETR","BSTAR":"0.00158080000000","MEAN_ELEMENT_THEORY":"SGP4","CENTER_NAME":"EARTH","COUNTRY_CODE":"US","ELEMENT_SET_NO":"999","RA_OF_ASC_NODE":"170.4460","OBJECT_TYPE":"PAYLOAD","FILE":"3886632","PERIOD":"95.592","MEAN_MOTION_DOT":"0.00023344","INCLINATION":"53.0539","EPHEMERIS_TYPE":"0","ARG_OF_PERICENTER":"67.4638","MEAN_MOTION_DDOT":"0.0000000000000","TLE_LINE1":"1 45559U 20025AE  23103.49814064  .00023344  00000-0  15808-2 0  9992","RCS_SIZE":"LARGE","MEAN_MOTION":"15.06402004","PERIAPSIS":"546.245"},{"APOAPSIS":"548.380","ECCENTRICITY":"0.00016610","REF_FRAME":"TEME","OBJECT_ID":"2020-025AF","TLE_LINE2":"2 45560  53.0528 161.1222 0001661  79.9469 280.1707 15.06394694165541","DECAY_DATE":null,"SEMIMAJOR_AXIS":"6925.365","GP_ID":"230010225","REV_AT_EPOCH":"16554","TIME_SYSTEM":"UTC","MEAN_ANOMALY":"280.1707","OBJECT_NAME":"STARLINK-1346","NORAD_CAT_ID":"45560","EPOCH":"2023-04-13T08:31:37.947648","CLASSIFICATION_TYPE":"U","LAUNCH_DATE":"2020-04-22","SITE":"AFETR","MEAN_ELEMENT_THEORY":"SGP4","BSTAR":"0.00025754000000","COUNTRY_CODE":"US","CENTER_NAME":"EARTH","RA_OF_ASC_NODE":"161.1222","ELEMENT_SET_NO":"999","FILE":"3886564","OBJECT_TYPE":"PAYLOAD","PERIOD":"95.592","INCLINATION":"53.0528","MEAN_MOTION_DOT":"0.00003556","EPHEMERIS_TYPE":"0","ARG_OF_PERICENTER":"79.9469","MEAN_MOTION_DDOT":"0.0000000000000","PERIAPSIS":"546.080","TLE_LINE1":"1 45560U 20025AF  23103.35530032  .00003556  00000-0  25754-3 0  9994","RCS_SIZE":"LARGE","MEAN_MOTION":"15.06394694"},{"APOAPSIS":"434.685","ECCENTRICITY":"0.00090550","REF_FRAME":"TEME","OBJECT_ID":"2020-025AG","TLE_LINE2":"2 45561  53.0562  45.5513 0009055  84.8934 275.3105 15.45973432166562","DECAY_DATE":null,"SEMIMAJOR_AXIS":"6806.656","REV_AT_EPOCH":"16656","GP_ID":"230018266","TIME_SYSTEM":"UTC","MEAN_ANOMALY":"275.3105","OBJECT_NAME":"STARLINK-1348","NORAD_CAT_ID":"45561","EPOCH":"2023-04-13T04:35:10.300416","CLASSIFICATION_TYPE":"U","LAUNCH_DATE":"2020-04-22","SITE":"AFETR","MEAN_ELEMENT_THEORY":"SGP4","BSTAR":"0.00280260000000","COUNTRY_CODE":"US","CENTER_NAME":"EARTH","RA_OF_ASC_NODE":"45.5513","ELEMENT_SET_NO":"999","FILE":"3886607","OBJECT_TYPE":"PAYLOAD","PERIOD":"93.145","INCLINATION":"53.0562","MEAN_MOTION_DOT":"0.00141105","EPHEMERIS_TYPE":"0","ARG_OF_PERICENTER":"84.8934","MEAN_MOTION_DDOT":"0.0000000000000","PERIAPSIS":"422.358","MEAN_MOTION":"15.45973432","TLE_LINE1":"1 45561U 20025AG  23103.19109144  .00141105  00000-0  28026-2 0  9990","RCS_SIZE":"LARGE"},{"TLE_LINE2":"2 45562  53.0532 170.7372 0001295  95.3958 264.7178 15.06427866164815","OBJECT_ID":"2020-025AH","DECAY_DATE":null,"GP_ID":"230018284","REV_AT_EPOCH":"16481","SEMIMAJOR_AXIS":"6925.263","MEAN_ANOMALY":"264.7178","TIME_SYSTEM":"UTC","APOAPSIS":"548.025","ECCENTRICITY":"0.00012950","REF_FRAME":"TEME","NORAD_CAT_ID":"45562","EPOCH":"2023-04-13T10:39:02.655936","CLASSIFICATION_TYPE":"U","SITE":"AFETR","LAUNCH_DATE":"2020-04-22","OBJECT_NAME":"STARLINK-1354","OBJECT_TYPE":"PAYLOAD","FILE":"3886602","PERIOD":"95.590","MEAN_MOTION_DOT":"0.00024671","INCLINATION":"53.0532","BSTAR":"0.00166810000000","MEAN_ELEMENT_THEORY":"SGP4","CENTER_NAME":"EARTH","COUNTRY_CODE":"US","ELEMENT_SET_NO":"999","RA_OF_ASC_NODE":"170.7372","TLE_LINE1":"1 45562U 20025AH  23103.44378074  .00024671  00000-0  16681-2 0  9991","RCS_SIZE":"LARGE","MEAN_MOTION":"15.06427866","PERIAPSIS":"546.231","EPHEMERIS_TYPE":"0","ARG_OF_PERICENTER":"95.3958","MEAN_MOTION_DDOT":"0.0000000000000"},{"CLASSIFICATION_TYPE":"U","LAUNCH_DATE":"2020-04-22","SITE":"AFETR","NORAD_CAT_ID":"45563","EPOCH":"2023-04-13T15:46:53.137344","OBJECT_NAME":"STARLINK-1355","SEMIMAJOR_AXIS":"6925.226","REV_AT_EPOCH":"16484","GP_ID":"230018276","TIME_SYSTEM":"UTC","MEAN_ANOMALY":"300.7312","TLE_LINE2":"2 45563  53.0527 169.7758 0001222  59.3797 300.7312 15.06439955164843","OBJECT_ID":"2020-025AJ","DECAY_DATE":null,"ECCENTRICITY":"0.00012220","REF_FRAME":"TEME","APOAPSIS":"547.937","PERIAPSIS":"546.245","RCS_SIZE":"LARGE","TLE_LINE1":"1 45563U 20025AJ  23103.65755946  .00020051  00000-0  13597-2 0  9993","MEAN_MOTION":"15.06439955","ARG_OF_PERICENTER":"59.3797","EPHEMERIS_TYPE":"0","MEAN_MOTION_DDOT":"0.0000000000000","PERIOD":"95.590","INCLINATION":"53.0527","MEAN_MOTION_DOT":"0.00020051","FILE":"3886602","OBJECT_TYPE":"PAYLOAD","COUNTRY_CODE":"US","CENTER_NAME":"EARTH","RA_OF_ASC_NODE":"169.7758","ELEMENT_SET_NO":"999","MEAN_ELEMENT_THEORY":"SGP4","BSTAR":"0.00135970000000"},{"ELEMENT_SET_NO":"999","RA_OF_ASC_NODE":"169.7884","CENTER_NAME":"EARTH","COUNTRY_CODE":"US","BSTAR":"0.00157590000000","MEAN_ELEMENT_THEORY":"SGP4","MEAN_MOTION_DOT":"0.00023282","INCLINATION":"53.0518","PERIOD":"95.591","OBJECT_TYPE":"PAYLOAD","FILE":"3886752","MEAN_MOTION_DDOT":"0.0000000000000","ARG_OF_PERICENTER":"108.1970","EPHEMERIS_TYPE":"0","TLE_LINE1":"1 45564U 20025AK  23103.65388735  .00023282  00000-0  15759-2 0  9993","RCS_SIZE":"LARGE","MEAN_MOTION":"15.06419409","PERIAPSIS":"546.498","REF_FRAME":"TEME","ECCENTRICITY":"0.00009480","APOAPSIS":"547.811","MEAN_ANOMALY":"251.9123","TIME_SYSTEM":"UTC","GP_ID":"230021808","REV_AT_EPOCH":"16484","SEMIMAJOR_AXIS":"6925.289","DECAY_DATE":null,"TLE_LINE2":"2 45564  53.0518 169.7884 0000948 108.1970 251.9123 15.06419409164843","OBJECT_ID":"2020-025AK","OBJECT_NAME":"STARLINK-1356","LAUNCH_DATE":"2020-04-22","SITE":"AFETR","CLASSIFICATION_TYPE":"U","EPOCH":"2023-04-13T15:41:35.867040","NORAD_CAT_ID":"45564"},{"SITE":"AFETR","LAUNCH_DATE":"2020-04-22","CLASSIFICATION_TYPE":"U","EPOCH":"2023-04-13T10:44:20.839488","NORAD_CAT_ID":"45565","OBJECT_NAME":"STARLINK-1357","MEAN_ANOMALY":"264.2528","TIME_SYSTEM":"UTC","REV_AT_EPOCH":"16482","GP_ID":"230017970","SEMIMAJOR_AXIS":"6925.281","DECAY_DATE":null,"OBJECT_ID":"2020-025AL","TLE_LINE2":"2 45565  53.0511 170.7197 0001176  95.8595 264.2528 15.06422056164821","REF_FRAME":"TEME","ECCENTRICITY":"0.00011760","APOAPSIS":"547.960","TLE_LINE1":"1 45565U 20025AL  23103.44746342  .00025369  00000-0  17149-2 0  9996","MEAN_MOTION":"15.06422056","RCS_SIZE":"LARGE","PERIAPSIS":"546.332","MEAN_MOTION_DDOT":"0.0000000000000","ARG_OF_PERICENTER":"95.8595","EPHEMERIS_TYPE":"0","MEAN_MOTION_DOT":"0.00025369","INCLINATION":"53.0511","PERIOD":"95.591","OBJECT_TYPE":"PAYLOAD","FILE":"3886602","ELEMENT_SET_NO":"999","RA_OF_ASC_NODE":"170.7197","CENTER_NAME":"EARTH","COUNTRY_CODE":"US","BSTAR":"0.00171490000000","MEAN_ELEMENT_THEORY":"SGP4"}];
